CAS-2T & KS-1Q          
1 41847U 16066G   20216.10303374  .00000059  00000-0  18359-4 0  9999
2 41847  98.6505 267.0789 0366787  89.9488 274.3720 14.38081786196121
NAYIF-1 (EO-88)         
1 42017U 17008BX  20216.48241869  .00001416  00000-0  56833-4 0  9994
2 42017  97.3574 283.3548 0007163 143.5886 216.5841 15.26606885192721
MAX VALIER SAT          
1 42778U 17036P   20216.39563707  .00000796  00000-0  37048-4 0  9994
2 42778  97.3017 268.7260 0011257 209.7896 150.2701 15.22687683172874
RADFXSAT (FOX-1B)       
1 43017U 17073E   20216.27464998  .00000262  00000-0  26450-4 0  9994
2 43017  97.7199 126.7038 0255334 257.7661  99.4853 14.78983641146080
FOX-1D (AO-92)          
1 43137U 18004AC  20216.49090488  .00000890  00000-0  39490-4 0  9990
2 43137  97.4436 287.3298 0007573 245.9942 114.0502 15.24196477142218
DIWATA-2B               
1 43678U 18084H   20216.49852266  .00000295  00000-0  35065-4 0  9991
2 43678  97.8892 334.9132 0010587  29.0418 331.1403 14.91643491 96038
ES'HAIL 2               
1 43700U 18090A   20216.50639583  .00000126  00000-0  00000-0 0  9991
2 43700   0.0160  77.9554 0002008  76.9387   5.6820  1.00272294  6183
FOX-1CLIFF (AO-95)      
1 43770U 18099N   20216.42723837  .00000314  00000-0  33843-4 0  9998
2 43770  97.7039 286.9842 0015653  45.1790 315.0699 14.95016770 90937
ITASAT 1                
1 43786U 18099AE  20216.14591544  .00000585  00000-0  58082-4 0  9994
2 43786  97.7054 287.1608 0016065  40.0370 320.2032 14.95350114 90910
JY1SAT (JO-97)          
1 43803U 18099AX  20216.15485896  .00000582  00000-0  57584-4 0  9990
2 43803  97.7015 286.9774 0016106  40.3910 319.8504 14.95533663 90917
PSAT2 (NO-104)          
1 44354U 19036R   20215.98164121  .00015631  00000-0  22785-3 0  9994
2 44354  28.5297  74.9037 0361755  88.1513 276.0464 15.04189845 60839
BRICSAT2 (NO-103)       
1 44355U 19036S   20215.88184386  .00032892  00000-0  45552-3 0  9994
2 44355  28.5297  64.3119 0337906 105.3104 258.5089 15.10245692 60932
JAISAT-1                
1 44419U 19038F   20216.45131984  .00000814  00000-0  49860-4 0  9993
2 44419  97.5417 177.5066 0020830 333.1365  26.8785 15.12844483 59703
DUCHIFAT-3              
1 44854U 19089C   20216.25298183  .00000287  00000-0  29597-4 0  9994
2 44854  36.9678 181.7731 0007818  74.5831 285.5765 14.99093120 35325
RS-44 & BREEZE-KM R/B   
1 44909U 19096E   20216.42499418  .00000012  00000-0 -50088-5 0  9993
2 44909  82.5242 324.1025 0218451 116.6075 245.7589 12.79707952 28194
ORBITAL FACTORY 2 (OF-2)
1 45113U 19071C   20216.34223753  .00001367  00000-0  53059-4 0  9995
2 45113  51.6443 137.0186 0012462 224.9827 135.0146 15.33486927 28327
HUSKYSAT-1              
1 45119U 19071J   20216.18385160  .00001473  00000-0  55941-4 0  9994
2 45119  51.6436 137.4618 0011760 220.4866 139.5242 15.33693257 28291
